{
  "type": "FeatureCollection",
  "features": [
    {
      "type": "Feature",
      "geometry": {
        "type": "Polygon",
        "coordinates": [
          [
            [
              -6.721940994262695,
              45.24618911743164
            ],
            [
              -6.671940803527832,
              45.24618911743164
            ],
            [
              -6.671940803527832,
              45.29618835449219
            ],
            [
              -6.721940994262695,
              45.29618835449219
            ],
            [
              -6.721940994262695,
              45.24618911743164
            ]
          ]
        ]
      },
      "properties": {
        "time_utc": "2019-03-22T06:41:15Z",
        "rank": 1,
        "particle_count": 1700,
        "probability": 0.0518
      }
    },
    {
      "type": "Feature",
      "geometry": {
        "type": "Polygon",
        "coordinates": [
          [
            [
              -8.721948623657227,
              45.496185302734375
            ],
            [
              -8.671948432922363,
              45.496185302734375
            ],
            [
              -8.671948432922363,
              45.54618453979492
            ],
            [
              -8.721948623657227,
              45.54618453979492
            ],
            [
              -8.721948623657227,
              45.496185302734375
            ]
          ]
        ]
      },
      "properties": {
        "time_utc": "2019-03-22T06:41:15Z",
        "rank": 2,
        "particle_count": 1603,
        "probability": 0.0488
      }
    },
    {
      "type": "Feature",
      "geometry": {
        "type": "Polygon",
        "coordinates": [
          [
            [
              -8.671948432922363,
              45.496185302734375
            ],
            [
              -8.6219482421875,
              45.496185302734375
            ],
            [
              -8.6219482421875,
              45.54618453979492
            ],
            [
              -8.671948432922363,
              45.54618453979492
            ],
            [
              -8.671948432922363,
              45.496185302734375
            ]
          ]
        ]
      },
      "properties": {
        "time_utc": "2019-03-22T06:41:15Z",
        "rank": 3,
        "particle_count": 1570,
        "probability": 0.0478
      }
    },
    {
      "type": "Feature",
      "geometry": {
        "type": "Polygon",
        "coordinates": [
          [
            [
              -7.921945571899414,
              45.39618682861328
            ],
            [
              -7.871945381164551,
              45.39618682861328
            ],
            [
              -7.871945381164551,
              45.44618606567383
            ],
            [
              -7.921945571899414,
              45.44618606567383
            ],
            [
              -7.921945571899414,
              45.39618682861328
            ]
          ]
        ]
      },
      "properties": {
        "time_utc": "2019-03-22T06:41:15Z",
        "rank": 4,
        "particle_count": 1452,
        "probability": 0.0442
      }
    },
    {
      "type": "Feature",
      "geometry": {
        "type": "Polygon",
        "coordinates": [
          [
            [
              -8.521947860717773,
              45.44618606567383
            ],
            [
              -8.47194766998291,
              45.44618606567383
            ],
            [
              -8.47194766998291,
              45.496185302734375
            ],
            [
              -8.521947860717773,
              45.496185302734375
            ],
            [
              -8.521947860717773,
              45.44618606567383
            ]
          ]
        ]
      },
      "properties": {
        "time_utc": "2019-03-22T06:41:15Z",
        "rank": 5,
        "particle_count": 1412,
        "probability": 0.043
      }
    },
    {
      "type": "Feature",
      "geometry": {
        "type": "Polygon",
        "coordinates": [
          [
            [
              -7.871945381164551,
              45.39618682861328
            ],
            [
              -7.8219451904296875,
              45.39618682861328
            ],
            [
              -7.8219451904296875,
              45.44618606567383
            ],
            [
              -7.871945381164551,
              45.44618606567383
            ],
            [
              -7.871945381164551,
              45.39618682861328
            ]
          ]
        ]
      },
      "properties": {
        "time_utc": "2019-03-22T06:41:15Z",
        "rank": 6,
        "particle_count": 1412,
        "probability": 0.043
      }
    },
    {
      "type": "Feature",
      "geometry": {
        "type": "Polygon",
        "coordinates": [
          [
            [
              -7.121942520141602,
              45.29618835449219
            ],
            [
              -7.071942329406738,
              45.29618835449219
            ],
            [
              -7.071942329406738,
              45.346187591552734
            ],
            [
              -7.121942520141602,
              45.346187591552734
            ],
            [
              -7.121942520141602,
              45.29618835449219
            ]
          ]
        ]
      },
      "properties": {
        "time_utc": "2019-03-22T06:41:15Z",
        "rank": 7,
        "particle_count": 1407,
        "probability": 0.0428
      }
    },
    {
      "type": "Feature",
      "geometry": {
        "type": "Polygon",
        "coordinates": [
          [
            [
              -7.271943092346191,
              45.29618835449219
            ],
            [
              -7.221942901611328,
              45.29618835449219
            ],
            [
              -7.221942901611328,
              45.346187591552734
            ],
            [
              -7.271943092346191,
              45.346187591552734
            ],
            [
              -7.271943092346191,
              45.29618835449219
            ]
          ]
        ]
      },
      "properties": {
        "time_utc": "2019-03-22T06:41:15Z",
        "rank": 8,
        "particle_count": 1344,
        "probability": 0.0409
      }
    },
    {
      "type": "Feature",
      "geometry": {
        "type": "Polygon",
        "coordinates": [
          [
            [
              -8.571948051452637,
              45.44618606567383
            ],
            [
              -8.521947860717773,
              45.44618606567383
            ],
            [
              -8.521947860717773,
              45.496185302734375
            ],
            [
              -8.571948051452637,
              45.496185302734375
            ],
            [
              -8.571948051452637,
              45.44618606567383
            ]
          ]
        ]
      },
      "properties": {
        "time_utc": "2019-03-22T06:41:15Z",
        "rank": 9,
        "particle_count": 1288,
        "probability": 0.0392
      }
    },
    {
      "type": "Feature",
      "geometry": {
        "type": "Polygon",
        "coordinates": [
          [
            [
              -9.521951675415039,
              45.59618377685547
            ],
            [
              -9.471951484680176,
              45.59618377685547
            ],
            [
              -9.471951484680176,
              45.646183013916016
            ],
            [
              -9.521951675415039,
              45.646183013916016
            ],
            [
              -9.521951675415039,
              45.59618377685547
            ]
          ]
        ]
      },
      "properties": {
        "time_utc": "2019-03-22T06:41:15Z",
        "rank": 10,
        "particle_count": 1276,
        "probability": 0.0388
      }
    },
    {
      "type": "Feature",
      "geometry": {
        "type": "Polygon",
        "coordinates": [
          [
            [
              -8.611586570739746,
              45.42998123168945
            ],
            [
              -8.561586380004883,
              45.42998123168945
            ],
            [
              -8.561586380004883,
              45.47998046875
            ],
            [
              -8.611586570739746,
              45.47998046875
            ],
            [
              -8.611586570739746,
              45.42998123168945
            ]
          ]
        ]
      },
      "properties": {
        "time_utc": "2019-03-22T00:41:15Z",
        "rank": 1,
        "particle_count": 1726,
        "probability": 0.0525
      }
    },
    {
      "type": "Feature",
      "geometry": {
        "type": "Polygon",
        "coordinates": [
          [
            [
              -6.661579132080078,
              45.229984283447266
            ],
            [
              -6.611578941345215,
              45.229984283447266
            ],
            [
              -6.611578941345215,
              45.27998352050781
            ],
            [
              -6.661579132080078,
              45.27998352050781
            ],
            [
              -6.661579132080078,
              45.229984283447266
            ]
          ]
        ]
      },
      "properties": {
        "time_utc": "2019-03-22T00:41:15Z",
        "rank": 2,
        "particle_count": 1676,
        "probability": 0.051
      }
    },
    {
      "type": "Feature",
      "geometry": {
        "type": "Polygon",
        "coordinates": [
          [
            [
              -8.51158618927002,
              45.42998123168945
            ],
            [
              -8.461585998535156,
              45.42998123168945
            ],
            [
              -8.461585998535156,
              45.47998046875
            ],
            [
              -8.51158618927002,
              45.47998046875
            ],
            [
              -8.51158618927002,
              45.42998123168945
            ]
          ]
        ]
      },
      "properties": {
        "time_utc": "2019-03-22T00:41:15Z",
        "rank": 3,
        "particle_count": 1584,
        "probability": 0.0482
      }
    },
    {
      "type": "Feature",
      "geometry": {
        "type": "Polygon",
        "coordinates": [
          [
            [
              -7.861583709716797,
              45.379981994628906
            ],
            [
              -7.811583518981934,
              45.379981994628906
            ],
            [
              -7.811583518981934,
              45.42998123168945
            ],
            [
              -7.861583709716797,
              45.42998123168945
            ],
            [
              -7.861583709716797,
              45.379981994628906
            ]
          ]
        ]
      },
      "properties": {
        "time_utc": "2019-03-22T00:41:15Z",
        "rank": 4,
        "particle_count": 1489,
        "probability": 0.0453
      }
    },
    {
      "type": "Feature",
      "geometry": {
        "type": "Polygon",
        "coordinates": [
          [
            [
              -8.561586380004883,
              45.42998123168945
            ],
            [
              -8.51158618927002,
              45.42998123168945
            ],
            [
              -8.51158618927002,
              45.47998046875
            ],
            [
              -8.561586380004883,
              45.47998046875
            ],
            [
              -8.561586380004883,
              45.42998123168945
            ]
          ]
        ]
      },
      "properties": {
        "time_utc": "2019-03-22T00:41:15Z",
        "rank": 5,
        "particle_count": 1478,
        "probability": 0.045
      }
    },
    {
      "type": "Feature",
      "geometry": {
        "type": "Polygon",
        "coordinates": [
          [
            [
              -7.76158332824707,
              45.379981994628906
            ],
            [
              -7.711583137512207,
              45.379981994628906
            ],
            [
              -7.711583137512207,
              45.42998123168945
            ],
            [
              -7.76158332824707,
              45.42998123168945
            ],
            [
              -7.76158332824707,
              45.379981994628906
            ]
          ]
        ]
      },
      "properties": {
        "time_utc": "2019-03-22T00:41:15Z",
        "rank": 6,
        "particle_count": 1457,
        "probability": 0.0444
      }
    },
    {
      "type": "Feature",
      "geometry": {
        "type": "Polygon",
        "coordinates": [
          [
            [
              -8.66158676147461,
              45.42998123168945
            ],
            [
              -8.611586570739746,
              45.42998123168945
            ],
            [
              -8.611586570739746,
              45.47998046875
            ],
            [
              -8.66158676147461,
              45.47998046875
            ],
            [
              -8.66158676147461,
              45.42998123168945
            ]
          ]
        ]
      },
      "properties": {
        "time_utc": "2019-03-22T00:41:15Z",
        "rank": 7,
        "particle_count": 1357,
        "probability": 0.0413
      }
    },
    {
      "type": "Feature",
      "geometry": {
        "type": "Polygon",
        "coordinates": [
          [
            [
              -7.211581230163574,
              45.27998352050781
            ],
            [
              -7.161581039428711,
              45.27998352050781
            ],
            [
              -7.161581039428711,
              45.32998275756836
            ],
            [
              -7.211581230163574,
              45.32998275756836
            ],
            [
              -7.211581230163574,
              45.27998352050781
            ]
          ]
        ]
      },
      "properties": {
        "time_utc": "2019-03-22T00:41:15Z",
        "rank": 8,
        "particle_count": 1356,
        "probability": 0.0413
      }
    },
    {
      "type": "Feature",
      "geometry": {
        "type": "Polygon",
        "coordinates": [
          [
            [
              -7.061580657958984,
              45.27998352050781
            ],
            [
              -7.011580467224121,
              45.27998352050781
            ],
            [
              -7.011580467224121,
              45.32998275756836
            ],
            [
              -7.061580657958984,
              45.32998275756836
            ],
            [
              -7.061580657958984,
              45.27998352050781
            ]
          ]
        ]
      },
      "properties": {
        "time_utc": "2019-03-22T00:41:15Z",
        "rank": 9,
        "particle_count": 1333,
        "probability": 0.0406
      }
    },
    {
      "type": "Feature",
      "geometry": {
        "type": "Polygon",
        "coordinates": [
          [
            [
              -7.011580467224121,
              45.27998352050781
            ],
            [
              -6.961580276489258,
              45.27998352050781
            ],
            [
              -6.961580276489258,
              45.32998275756836
            ],
            [
              -7.011580467224121,
              45.32998275756836
            ],
            [
              -7.011580467224121,
              45.27998352050781
            ]
          ]
        ]
      },
      "properties": {
        "time_utc": "2019-03-22T00:41:15Z",
        "rank": 10,
        "particle_count": 1320,
        "probability": 0.0402
      }
    },
    {
      "type": "Feature",
      "geometry": {
        "type": "Polygon",
        "coordinates": [
          [
            [
              -8.560462951660156,
              45.42202377319336
            ],
            [
              -8.510462760925293,
              45.42202377319336
            ],
            [
              -8.510462760925293,
              45.472023010253906
            ],
            [
              -8.560462951660156,
              45.472023010253906
            ],
            [
              -8.560462951660156,
              45.42202377319336
            ]
          ]
        ]
      },
      "properties": {
        "time_utc": "2019-03-21T18:41:15Z",
        "rank": 1,
        "particle_count": 1783,
        "probability": 0.0543
      }
    },
    {
      "type": "Feature",
      "geometry": {
        "type": "Polygon",
        "coordinates": [
          [
            [
              -8.510462760925293,
              45.42202377319336
            ],
            [
              -8.46046257019043,
              45.42202377319336
            ],
            [
              -8.46046257019043,
              45.472023010253906
            ],
            [
              -8.510462760925293,
              45.472023010253906
            ],
            [
              -8.510462760925293,
              45.42202377319336
            ]
          ]
        ]
      },
      "properties": {
        "time_utc": "2019-03-21T18:41:15Z",
        "rank": 2,
        "particle_count": 1679,
        "probability": 0.0511
      }
    },
    {
      "type": "Feature",
      "geometry": {
        "type": "Polygon",
        "coordinates": [
          [
            [
              -8.46046257019043,
              45.42202377319336
            ],
            [
              -8.410462379455566,
              45.42202377319336
            ],
            [
              -8.410462379455566,
              45.472023010253906
            ],
            [
              -8.46046257019043,
              45.472023010253906
            ],
            [
              -8.46046257019043,
              45.42202377319336
            ]
          ]
        ]
      },
      "properties": {
        "time_utc": "2019-03-21T18:41:15Z",
        "rank": 3,
        "particle_count": 1574,
        "probability": 0.0479
      }
    },
    {
      "type": "Feature",
      "geometry": {
        "type": "Polygon",
        "coordinates": [
          [
            [
              -7.110457420349121,
              45.27202606201172
            ],
            [
              -7.060457229614258,
              45.27202606201172
            ],
            [
              -7.060457229614258,
              45.322025299072266
            ],
            [
              -7.110457420349121,
              45.322025299072266
            ],
            [
              -7.110457420349121,
              45.27202606201172
            ]
          ]
        ]
      },
      "properties": {
        "time_utc": "2019-03-21T18:41:15Z",
        "rank": 4,
        "particle_count": 1395,
        "probability": 0.0425
      }
    },
    {
      "type": "Feature",
      "geometry": {
        "type": "Polygon",
        "coordinates": [
          [
            [
              -6.610455513000488,
              45.22202682495117
            ],
            [
              -6.560455322265625,
              45.22202682495117
            ],
            [
              -6.560455322265625,
              45.27202606201172
            ],
            [
              -6.610455513000488,
              45.27202606201172
            ],
            [
              -6.610455513000488,
              45.22202682495117
            ]
          ]
        ]
      },
      "properties": {
        "time_utc": "2019-03-21T18:41:15Z",
        "rank": 5,
        "particle_count": 1332,
        "probability": 0.0405
      }
    },
    {
      "type": "Feature",
      "geometry": {
        "type": "Polygon",
        "coordinates": [
          [
            [
              -8.61046314239502,
              45.42202377319336
            ],
            [
              -8.560462951660156,
              45.42202377319336
            ],
            [
              -8.560462951660156,
              45.472023010253906
            ],
            [
              -8.61046314239502,
              45.472023010253906
            ],
            [
              -8.61046314239502,
              45.42202377319336
            ]
          ]
        ]
      },
      "properties": {
        "time_utc": "2019-03-21T18:41:15Z",
        "rank": 6,
        "particle_count": 1330,
        "probability": 0.0405
      }
    },
    {
      "type": "Feature",
      "geometry": {
        "type": "Polygon",
        "coordinates": [
          [
            [
              -8.410462379455566,
              45.42202377319336
            ],
            [
              -8.360462188720703,
              45.42202377319336
            ],
            [
              -8.360462188720703,
              45.472023010253906
            ],
            [
              -8.410462379455566,
              45.472023010253906
            ],
            [
              -8.410462379455566,
              45.42202377319336
            ]
          ]
        ]
      },
      "properties": {
        "time_utc": "2019-03-21T18:41:15Z",
        "rank": 7,
        "particle_count": 1262,
        "probability": 0.0384
      }
    },
    {
      "type": "Feature",
      "geometry": {
        "type": "Polygon",
        "coordinates": [
          [
            [
              -7.760459899902344,
              45.37202453613281
            ],
            [
              -7.7104597091674805,
              45.37202453613281
            ],
            [
              -7.7104597091674805,
              45.42202377319336
            ],
            [
              -7.760459899902344,
              45.42202377319336
            ],
            [
              -7.760459899902344,
              45.37202453613281
            ]
          ]
        ]
      },
      "properties": {
        "time_utc": "2019-03-21T18:41:15Z",
        "rank": 8,
        "particle_count": 1240,
        "probability": 0.0377
      }
    },
    {
      "type": "Feature",
      "geometry": {
        "type": "Polygon",
        "coordinates": [
          [
            [
              -6.560455322265625,
              45.22202682495117
            ],
            [
              -6.510455131530762,
              45.22202682495117
            ],
            [
              -6.510455131530762,
              45.27202606201172
            ],
            [
              -6.560455322265625,
              45.27202606201172
            ],
            [
              -6.560455322265625,
              45.22202682495117
            ]
          ]
        ]
      },
      "properties": {
        "time_utc": "2019-03-21T18:41:15Z",
        "rank": 9,
        "particle_count": 1239,
        "probability": 0.0377
      }
    },
    {
      "type": "Feature",
      "geometry": {
        "type": "Polygon",
        "coordinates": [
          [
            [
              -7.060457229614258,
              45.27202606201172
            ],
            [
              -7.0104570388793945,
              45.27202606201172
            ],
            [
              -7.0104570388793945,
              45.322025299072266
            ],
            [
              -7.060457229614258,
              45.322025299072266
            ],
            [
              -7.060457229614258,
              45.27202606201172
            ]
          ]
        ]
      },
      "properties": {
        "time_utc": "2019-03-21T18:41:15Z",
        "rank": 10,
        "particle_count": 1185,
        "probability": 0.0361
      }
    },
    {
      "type": "Feature",
      "geometry": {
        "type": "Polygon",
        "coordinates": [
          [
            [
              -8.450907707214355,
              45.41664505004883
            ],
            [
              -8.400907516479492,
              45.41664505004883
            ],
            [
              -8.400907516479492,
              45.466644287109375
            ],
            [
              -8.450907707214355,
              45.466644287109375
            ],
            [
              -8.450907707214355,
              45.41664505004883
            ]
          ]
        ]
      },
      "properties": {
        "time_utc": "2019-03-21T13:41:15Z",
        "rank": 1,
        "particle_count": 1839,
        "probability": 0.056
      }
    },
    {
      "type": "Feature",
      "geometry": {
        "type": "Polygon",
        "coordinates": [
          [
            [
              -8.500907897949219,
              45.41664505004883
            ],
            [
              -8.450907707214355,
              45.41664505004883
            ],
            [
              -8.450907707214355,
              45.466644287109375
            ],
            [
              -8.500907897949219,
              45.466644287109375
            ],
            [
              -8.500907897949219,
              45.41664505004883
            ]
          ]
        ]
      },
      "properties": {
        "time_utc": "2019-03-21T13:41:15Z",
        "rank": 2,
        "particle_count": 1788,
        "probability": 0.0544
      }
    },
    {
      "type": "Feature",
      "geometry": {
        "type": "Polygon",
        "coordinates": [
          [
            [
              -8.550908088684082,
              45.41664505004883
            ],
            [
              -8.500907897949219,
              45.41664505004883
            ],
            [
              -8.500907897949219,
              45.466644287109375
            ],
            [
              -8.550908088684082,
              45.466644287109375
            ],
            [
              -8.550908088684082,
              45.41664505004883
            ]
          ]
        ]
      },
      "properties": {
        "time_utc": "2019-03-21T13:41:15Z",
        "rank": 3,
        "particle_count": 1380,
        "probability": 0.042
      }
    },
    {
      "type": "Feature",
      "geometry": {
        "type": "Polygon",
        "coordinates": [
          [
            [
              -7.7509050369262695,
              45.41664505004883
            ],
            [
              -7.700904846191406,
              45.41664505004883
            ],
            [
              -7.700904846191406,
              45.466644287109375
            ],
            [
              -7.7509050369262695,
              45.466644287109375
            ],
            [
              -7.7509050369262695,
              45.41664505004883
            ]
          ]
        ]
      },
      "properties": {
        "time_utc": "2019-03-21T13:41:15Z",
        "rank": 4,
        "particle_count": 1259,
        "probability": 0.0383
      }
    },
    {
      "type": "Feature",
      "geometry": {
        "type": "Polygon",
        "coordinates": [
          [
            [
              -7.050902366638184,
              45.26664733886719
            ],
            [
              -7.00090217590332,
              45.26664733886719
            ],
            [
              -7.00090217590332,
              45.316646575927734
            ],
            [
              -7.050902366638184,
              45.316646575927734
            ],
            [
              -7.050902366638184,
              45.26664733886719
            ]
          ]
        ]
      },
      "properties": {
        "time_utc": "2019-03-21T13:41:15Z",
        "rank": 5,
        "particle_count": 1243,
        "probability": 0.0378
      }
    },
    {
      "type": "Feature",
      "geometry": {
        "type": "Polygon",
        "coordinates": [
          [
            [
              -8.400907516479492,
              45.41664505004883
            ],
            [
              -8.350907325744629,
              45.41664505004883
            ],
            [
              -8.350907325744629,
              45.466644287109375
            ],
            [
              -8.400907516479492,
              45.466644287109375
            ],
            [
              -8.400907516479492,
              45.41664505004883
            ]
          ]
        ]
      },
      "properties": {
        "time_utc": "2019-03-21T13:41:15Z",
        "rank": 6,
        "particle_count": 1227,
        "probability": 0.0374
      }
    },
    {
      "type": "Feature",
      "geometry": {
        "type": "Polygon",
        "coordinates": [
          [
            [
              -6.550900459289551,
              45.21664810180664
            ],
            [
              -6.5009002685546875,
              45.21664810180664
            ],
            [
              -6.5009002685546875,
              45.26664733886719
            ],
            [
              -6.550900459289551,
              45.26664733886719
            ],
            [
              -6.550900459289551,
              45.21664810180664
            ]
          ]
        ]
      },
      "properties": {
        "time_utc": "2019-03-21T13:41:15Z",
        "rank": 7,
        "particle_count": 1102,
        "probability": 0.0335
      }
    },
    {
      "type": "Feature",
      "geometry": {
        "type": "Polygon",
        "coordinates": [
          [
            [
              -7.800905227661133,
              45.41664505004883
            ],
            [
              -7.7509050369262695,
              45.41664505004883
            ],
            [
              -7.7509050369262695,
              45.466644287109375
            ],
            [
              -7.800905227661133,
              45.466644287109375
            ],
            [
              -7.800905227661133,
              45.41664505004883
            ]
          ]
        ]
      },
      "properties": {
        "time_utc": "2019-03-21T13:41:15Z",
        "rank": 8,
        "particle_count": 1062,
        "probability": 0.0323
      }
    },
    {
      "type": "Feature",
      "geometry": {
        "type": "Polygon",
        "coordinates": [
          [
            [
              -9.350911140441895,
              45.51664352416992
            ],
            [
              -9.300910949707031,
              45.51664352416992
            ],
            [
              -9.300910949707031,
              45.56664276123047
            ],
            [
              -9.350911140441895,
              45.56664276123047
            ],
            [
              -9.350911140441895,
              45.51664352416992
            ]
          ]
        ]
      },
      "properties": {
        "time_utc": "2019-03-21T13:41:15Z",
        "rank": 9,
        "particle_count": 1021,
        "probability": 0.0311
      }
    },
    {
      "type": "Feature",
      "geometry": {
        "type": "Polygon",
        "coordinates": [
          [
            [
              -7.00090217590332,
              45.26664733886719
            ],
            [
              -6.950901985168457,
              45.26664733886719
            ],
            [
              -6.950901985168457,
              45.316646575927734
            ],
            [
              -7.00090217590332,
              45.316646575927734
            ],
            [
              -7.00090217590332,
              45.26664733886719
            ]
          ]
        ]
      },
      "properties": {
        "time_utc": "2019-03-21T13:41:15Z",
        "rank": 10,
        "particle_count": 984,
        "probability": 0.03
      }
    }
  ]
}